{"type": "FeatureCollection", "features": [{"type": "Feature", "properties": {"norad_id": 2807, "name": "OPS 7218 (TRANSIT 16)", "group": "nnss", "lat": 74.89211094712157, "lon": 172.82143030192762, "alt_km": 1046.509987630693, "timestamp": "2025-12-12T05:47:29.039423+00:00", "meta": {"OBJECT_NAME": "OPS 7218 (TRANSIT 16)", "OBJECT_ID": "1967-048A", "EPOCH": "2025-12-12T00:14:13.523136", "MEAN_MOTION": 13.50721953, "ECCENTRICITY": 0.00219266, "INCLINATION": 89.6732, "RA_OF_ASC_NODE": 354.0404, "ARG_OF_PERICENTER": 115.9976, "MEAN_ANOMALY": 304.4447, "EPHEMERIS_TYPE": 0, "CLASSIFICATION_TYPE": "U", "NORAD_CAT_ID": 2807, "ELEMENT_SET_NO": 999, "REV_AT_EPOCH": 88266, "BSTAR": 0.00019410267, "MEAN_MOTION_DOT": 1.35e-06, "MEAN_MOTION_DDOT": 0}, "tle": {"line1": "1 02807U 67048A   25346.00987874  .00000135  00000+0  19410-3 0  9991", "line2": "2 02807  89.6732 354.0404 0021926 115.9976 304.4447 13.50721953882664"}}, "geometry": {"type": "Point", "coordinates": [172.82143030192762, 74.89211094712157]}}, {"type": "Feature", "properties": {"norad_id": 2965, "name": "OPS 4947 (TRANSIT 17)", "group": "nnss", "lat": 15.676363389906113, "lon": -155.73689349417103, "alt_km": 1049.4803322402431, "timestamp": "2025-12-12T05:47:29.039445+00:00", "meta": {"OBJECT_NAME": "OPS 4947 (TRANSIT 17)", "OBJECT_ID": "1967-092A", "EPOCH": "2025-12-11T09:30:40.409856", "MEAN_MOTION": 13.53453015, "ECCENTRICITY": 0.00461041, "INCLINATION": 89.2497, "RA_OF_ASC_NODE": 24.5381, "ARG_OF_PERICENTER": 238.5289, "MEAN_ANOMALY": 131.4019, "EPHEMERIS_TYPE": 0, "CLASSIFICATION_TYPE": "U", "NORAD_CAT_ID": 2965, "ELEMENT_SET_NO": 999, "REV_AT_EPOCH": 87079, "BSTAR": 0.0002507644, "MEAN_MOTION_DOT": 1.81e-06, "MEAN_MOTION_DDOT": 0}, "tle": {"line1": "1 02965U 67092A   25345.39630104  .00000181  00000+0  25076-3 0  9993", "line2": "2 02965  89.2497  24.5381 0046104 238.5289 131.4019 13.53453015870798"}}, "geometry": {"type": "Point", "coordinates": [-155.73689349417103, 15.676363389906113]}}, {"type": "Feature", "properties": {"norad_id": 3133, "name": "OPS 7034 (TRANSIT 18)", "group": "nnss", "lat": -42.345703216651735, "lon": -86.33719504822042, "alt_km": 1119.176799762674, "timestamp": "2025-12-12T05:47:29.039459+00:00", "meta": {"OBJECT_NAME": "OPS 7034 (TRANSIT 18)", "OBJECT_ID": "1968-012A", "EPOCH": "2025-12-11T13:05:39.509088", "MEAN_MOTION": 13.51565248, "ECCENTRICITY": 0.00737273, "INCLINATION": 90.0279, "RA_OF_ASC_NODE": 273.6354, "ARG_OF_PERICENTER": 172.5806, "MEAN_ANOMALY": 1.6392, "EPHEMERIS_TYPE": 0, "CLASSIFICATION_TYPE": "U", "NORAD_CAT_ID": 3133, "ELEMENT_SET_NO": 999, "REV_AT_EPOCH": 56902, "BSTAR": 0.00025524024, "MEAN_MOTION_DOT": 1.79e-06, "MEAN_MOTION_DDOT": 0}, "tle": {"line1": "1 03133U 68012A   25345.54559617  .00000179  00000+0  25524-3 0  9995", "line2": "2 03133  90.0279 273.6354 0073727 172.5806   1.6392 13.51565248569027"}}, "geometry": {"type": "Point", "coordinates": [-86.33719504822042, -42.345703216651735]}}, {"type": "Feature", "properties": {"norad_id": 4507, "name": "NNSS 19 (TRANSIT 19)", "group": "nnss", "lat": -71.03832910351406, "lon": -125.45061407855306, "alt_km": 948.3902962028806, "timestamp": "2025-12-12T05:47:29.039471+00:00", "meta": {"OBJECT_NAME": "NNSS 19 (TRANSIT 19)", "OBJECT_ID": "1970-067A", "EPOCH": "2025-12-11T05:15:12.507264", "MEAN_MOTION": 13.51314509, "ECCENTRICITY": 0.0170634, "INCLINATION": 90.0055, "RA_OF_ASC_NODE": 234.5328, "ARG_OF_PERICENTER": 297.8266, "MEAN_ANOMALY": 60.5684, "EPHEMERIS_TYPE": 0, "CLASSIFICATION_TYPE": "U", "NORAD_CAT_ID": 4507, "ELEMENT_SET_NO": 999, "REV_AT_EPOCH": 72201, "BSTAR": 0.00023118437, "MEAN_MOTION_DOT": 1.72e-06, "MEAN_MOTION_DDOT": 0}, "tle": {"line1": "1 04507U 70067A   25345.21889476  .00000172  00000+0  23118-3 0  9997", "line2": "2 04507  90.0055 234.5328 0170634 297.8266  60.5684 13.51314509722018"}}, "geometry": {"type": "Point", "coordinates": [-125.45061407855306, -71.03832910351406]}}, {"type": "Feature", "properties": {"norad_id": 6909, "name": "NNSS 20 (TRANSIT 20)", "group": "nnss", "lat": -35.91957114729194, "lon": -105.04270582530258, "alt_km": 1049.1884332113723, "timestamp": "2025-12-12T05:47:29.039482+00:00", "meta": {"OBJECT_NAME": "NNSS 20 (TRANSIT 20)", "OBJECT_ID": "1973-081A", "EPOCH": "2025-12-11T17:42:34.169472", "MEAN_MOTION": 13.71433431, "ECCENTRICITY": 0.01566261, "INCLINATION": 89.8562, "RA_OF_ASC_NODE": 255.0691, "ARG_OF_PERICENTER": 81.282, "MEAN_ANOMALY": 280.6047, "EPHEMERIS_TYPE": 0, "CLASSIFICATION_TYPE": "U", "NORAD_CAT_ID": 6909, "ELEMENT_SET_NO": 999, "REV_AT_EPOCH": 80347, "BSTAR": 0.00032790531, "MEAN_MOTION_DOT": 3.34e-06, "MEAN_MOTION_DDOT": 0}, "tle": {"line1": "1 06909U 73081A   25345.73789548  .00000334  00000+0  32791-3 0  9997", "line2": "2 06909  89.8562 255.0691 0156626  81.2820 280.6047 13.71433431803478"}}, "geometry": {"type": "Point", "coordinates": [-105.04270582530258, -35.91957114729194]}}, {"type": "Feature", "properties": {"norad_id": 10457, "name": "TRANSAT", "group": "nnss", "lat": -61.34718622480148, "lon": 77.97020405414123, "alt_km": 1089.1103860903377, "timestamp": "2025-12-12T05:47:29.039493+00:00", "meta": {"OBJECT_NAME": "TRANSAT", "OBJECT_ID": "1977-106A", "EPOCH": "2025-12-11T19:58:48.725760", "MEAN_MOTION": 13.48943448, "ECCENTRICITY": 0.00253097, "INCLINATION": 89.6481, "RA_OF_ASC_NODE": 78.6291, "ARG_OF_PERICENTER": 192.1247, "MEAN_ANOMALY": 282.2762, "EPHEMERIS_TYPE": 0, "CLASSIFICATION_TYPE": "U", "NORAD_CAT_ID": 10457, "ELEMENT_SET_NO": 999, "REV_AT_EPOCH": 36731, "BSTAR": 0.00018010355, "MEAN_MOTION_DOT": 1.23e-06, "MEAN_MOTION_DDOT": 0}, "tle": {"line1": "1 10457U 77106A   25345.83250840  .00000123  00000+0  18010-3 0  9995", "line2": "2 10457  89.6481  78.6291 0025309 192.1247 282.2762 13.48943448367310"}}, "geometry": {"type": "Point", "coordinates": [77.97020405414123, -61.34718622480148]}}, {"type": "Feature", "properties": {"norad_id": 12458, "name": "NOVA 1", "group": "nnss", "lat": -66.12050754561221, "lon": -88.27426229818356, "alt_km": 1188.8588553797135, "timestamp": "2025-12-12T05:47:29.039504+00:00", "meta": {"OBJECT_NAME": "NOVA 1", "OBJECT_ID": "1981-044A", "EPOCH": "2025-12-11T20:03:30.952224", "MEAN_MOTION": 13.23278425, "ECCENTRICITY": 0.00158864, "INCLINATION": 89.8524, "RA_OF_ASC_NODE": 91.3979, "ARG_OF_PERICENTER": 106.2161, "MEAN_ANOMALY": 8.9777, "EPHEMERIS_TYPE": 0, "CLASSIFICATION_TYPE": "U", "NORAD_CAT_ID": 12458, "ELEMENT_SET_NO": 999, "REV_AT_EPOCH": 15174, "BSTAR": 0.00018009326, "MEAN_MOTION_DOT": 8.5e-07, "MEAN_MOTION_DDOT": 0}, "tle": {"line1": "1 12458U 81044A   25345.83577491  .00000085  00000+0  18009-3 0  9993", "line2": "2 12458  89.8524  91.3979 0015886 106.2161   8.9777 13.23278425151744"}}, "geometry": {"type": "Point", "coordinates": [-88.27426229818356, -66.12050754561221]}}, {"type": "Feature", "properties": {"norad_id": 15362, "name": "NOVA 3", "group": "nnss", "lat": 60.69438546191424, "lon": -99.25295483520918, "alt_km": 1186.3743339308521, "timestamp": "2025-12-12T05:47:29.039514+00:00", "meta": {"OBJECT_NAME": "NOVA 3", "OBJECT_ID": "1984-110A", "EPOCH": "2025-12-11T20:42:38.702880", "MEAN_MOTION": 13.23044467, "ECCENTRICITY": 0.00305589, "INCLINATION": 90.1224, "RA_OF_ASC_NODE": 80.5244, "ARG_OF_PERICENTER": 334.4175, "MEAN_ANOMALY": 143.5683, "EPHEMERIS_TYPE": 0, "CLASSIFICATION_TYPE": "U", "NORAD_CAT_ID": 15362, "ELEMENT_SET_NO": 999, "REV_AT_EPOCH": 98687, "BSTAR": 0.00025405593, "MEAN_MOTION_DOT": 1.15e-06, "MEAN_MOTION_DDOT": 0}, "tle": {"line1": "1 15362U 84110A   25345.86294795  .00000115  00000+0  25406-3 0  9996", "line2": "2 15362  90.1224  80.5244 0030558 334.4175 143.5683 13.23044467986870"}}, "geometry": {"type": "Point", "coordinates": [-99.25295483520918, 60.69438546191424]}}, {"type": "Feature", "properties": {"norad_id": 15935, "name": "OSCAR 30", "group": "nnss", "lat": 1.4689862190056573, "lon": -80.15698403248116, "alt_km": 1131.4607045253115, "timestamp": "2025-12-12T05:47:29.039525+00:00", "meta": {"OBJECT_NAME": "OSCAR 30", "OBJECT_ID": "1985-066A", "EPOCH": "2025-12-11T20:30:00.567072", "MEAN_MOTION": 13.36078238, "ECCENTRICITY": 0.01694171, "INCLINATION": 90.1649, "RA_OF_ASC_NODE": 99.8325, "ARG_OF_PERICENTER": 86.3773, "MEAN_ANOMALY": 29.1188, "EPHEMERIS_TYPE": 0, "CLASSIFICATION_TYPE": "U", "NORAD_CAT_ID": 15935, "ELEMENT_SET_NO": 999, "REV_AT_EPOCH": 96441, "BSTAR": 0.00025191195, "MEAN_MOTION_DOT": 1.5e-06, "MEAN_MOTION_DDOT": 0}, "tle": {"line1": "1 15935U 85066A   25345.85417323  .00000150  00000+0  25191-3 0  9996", "line2": "2 15935  90.1649  99.8325 0169417  86.3773  29.1188 13.36078238964416"}}, "geometry": {"type": "Point", "coordinates": [-80.15698403248116, 1.4689862190056573]}}, {"type": "Feature", "properties": {"norad_id": 15936, "name": "OSCAR 24", "group": "nnss", "lat": -72.75294649176278, "lon": -88.2803342854282, "alt_km": 1252.5984425491988, "timestamp": "2025-12-12T05:47:29.039535+00:00", "meta": {"OBJECT_NAME": "OSCAR 24", "OBJECT_ID": "1985-066B", "EPOCH": "2025-12-11T20:07:33.897792", "MEAN_MOTION": 13.3593562, "ECCENTRICITY": 0.01704913, "INCLINATION": 90.179, "RA_OF_ASC_NODE": 92.2895, "ARG_OF_PERICENTER": 92.8556, "MEAN_ANOMALY": 23.5178, "EPHEMERIS_TYPE": 0, "CLASSIFICATION_TYPE": "U", "NORAD_CAT_ID": 15936, "ELEMENT_SET_NO": 999, "REV_AT_EPOCH": 96631, "BSTAR": 0.00019952055, "MEAN_MOTION_DOT": 1.21e-06, "MEAN_MOTION_DDOT": 0}, "tle": {"line1": "1 15936U 85066B   25345.83858678  .00000121  00000+0  19952-3 0  9993", "line2": "2 15936  90.1790  92.2895 0170491  92.8556  23.5178 13.35935620966312"}}, "geometry": {"type": "Point", "coordinates": [-88.2803342854282, -72.75294649176278]}}]}